CZ-4B R/B               
1 28059U 03049C   16245.26181718  .00000018  00000-0  16336-4 0  9994
2 28059  98.5998 118.7629 0051167  49.0346  60.2584 14.52453373681731
CZ-2C R/B               
1 28222U 04012C   16244.47195959  .00000919  00000-0  61044-4 0  9997
2 28222  97.4817 201.3039 0050752  98.9014  14.4158 15.08644819676921
SL-16 R/B               
1 28353U 04021B   16244.70908178  .00000022  00000-0  36557-4 0  9999
2 28353  71.0016 325.5420 0007203 275.2104  84.8196 14.14175427631239
CZ-2C R/B               
1 28480U 04046B   16245.21920788  .00000005  00000-0  17619-4 0  9994
2 28480  98.1889 354.1251 0141972 357.8874  58.6142 14.25604589613060
ARIANE 5 R/B            
1 28499U 04049H   16245.31568814  .00000138  00000-0  24368-4 0  9992
2 28499  98.1052 320.2779 0093872  68.4376 333.7811 14.79726356631277
CZ-2D R/B               
1 28738U 05024B   16245.19133287  .00000952  00000-0  61289-4 0  9997
2 28738  97.5359 281.1606 0010698 279.9374  80.0648 15.10691462612175
SUZAKU (ASTRO-EII)      
1 28773U 05025A   16244.71116229  .00001722  00000-0  85492-4 0  9999
2 28773  31.3837  12.5599 0004952 323.4800  36.5508 15.14987764613408
ALOS (DAICHI)           
1 28931U 06002A   16244.89981997  .00000129  00000-0  34353-4 0  9992
2 28931  97.8784 280.2275 0002082 113.3508 246.7914 14.62230876565184
H-2A R/B                
1 28932U 06002B   16245.23685801  .00000519  00000-0  54944-4 0  9998
2 28932  98.2073 150.5659 0090620 177.2272 342.6836 14.90997638574746
AKARI (ASTRO-F)         
1 28939U 06005A   16245.11105902  .00006617  00000-0  21396-3 0  9993
2 28939  98.2488  49.4784 0113777 107.1697 254.2033 15.26340123568987
RESURS-DK 1             
1 29228U 06021A   16245.49236535  .00000364  00000-0  27722-4 0  9994
2 29228  69.9365 112.4922 0002005  41.2183 318.9653 15.01970240564751
GENESIS 1               
1 29252U 06029A   16245.21741578  .00000879  00000-0  55531-4 0  9997
2 29252  64.5054 148.8956 0022629 223.9558 301.5559 15.16189355558013
CZ-4B R/B               
1 29507U 06046C   16245.21904644  .00001042  00000-0  87556-4 0  9999
2 29507  97.7855 246.5211 0043964 151.1921 209.1744 14.99807386537729
CZ-2C R/B               
1 31114U 07010B   16245.21555192  .00000028  00000-0  32511-4 0  9992
2 31114  98.4085 156.4032 0059354 335.4630  24.3725 14.19214350486525
COSMO-SKYMED 1          
1 31598U 07023A   16245.49930599  .00000235  00000-0  36004-4 0  9991
2 31598  97.8756  67.6797 0001371  85.1114 275.0257 14.82167348499682
GENESIS 2               
1 31789U 07028A   16244.36617638  .00000807  00000-0  52012-4 0  9991
2 31789  64.5041 188.6104 0051382 257.2734 102.2641 15.15436852504978
COSMOS 2428             
1 31792U 07029A   16245.36409767 -.00000338  00000-0 -15754-3 0  9991
2 31792  70.9285 298.4378 0010260 342.5855  17.4913 14.12324733473297
SL-16 R/B               
1 31793U 07029B   16245.17715089 -.00000235  00000-0 -97741-4 0  9991
2 31793  70.9747 276.2256 0002918 267.1263 148.8754 14.14367989473852
KORONAS-FOTON           
1 33504U 09003A   16245.20620297  .00000444  00000-0  22348-4 0  9998
2 33504  82.4450 160.0681 0020628  32.4320 327.8174 15.14425275417734
TIANGONG 1              
1 37820U 11053A   16245.25107142  .00017376  00000-0  17288-3 0  9993
2 37820  42.7621 151.5474 0015189 213.7233 285.6282 15.65260952282495
CZ-3B R/B               
1 38253U 12018D   16245.54756719  .00330921  00000-0  65838-3 0  9996
2 38253  54.9665 103.6686 3360106 270.1620  52.1710  8.88933229 97672
H-2A R/B                
1 38341U 12025E   16244.74682314  .00000301  00000-0  43357-4 0  9991
2 38341  98.4729 299.0395 0056269  10.1313 350.1019 14.83384254231966
CUSAT 2 & FALCON 9 R/B  
1 39271U 13055G   16244.75723988  .00008829  00000-0  23556-3 0  9993
2 39271  80.9705 302.2824 0651010 335.8137  21.3691 14.32748447151112
ALOS-2                  
1 39766U 14029A   16245.39036721 -.00000072  00000-0 -28133-5 0  9999
2 39766  97.9219 340.8696 0001433  84.6296 275.5093 14.79470070122906
ASTRO-H (HITOMI)        
1 41337U 16012A   16245.17715698  .00000515  00000-0  35438-4 0  9998
2 41337  31.0052 149.9466 0012375  66.6096 293.5840 14.98120458 29544
AL-1 (AOLONG 1)         
1 41629U 16042F   16239.65613786  .02812959  76394-5  11024-3 0  9999
2 41629  40.7954   1.0182 0028766 314.0142  46.0026 16.40441923 10013
